[{"OBJECT_NAME":"TIANQI-40","OBJECT_ID":"2026-010D","EPOCH":"2026-03-09T13:59:28.118112","MEAN_MOTION":13.99111131,"ECCENTRICITY":0.0011419,"INCLINATION":44.9822,"RA_OF_ASC_NODE":165.0841,"ARG_OF_PERICENTER":228.5546,"MEAN_ANOMALY":131.4306,"EPHEMERIS_TYPE":0,"CLASSIFICATION_TYPE":"U","NORAD_CAT_ID":67479,"ELEMENT_SET_NO":999,"REV_AT_EPOCH":744,"BSTAR":0.00022524,"MEAN_MOTION_DOT":2.0e-6,"MEAN_MOTION_DDOT":0},{"OBJECT_NAME":"IRS-1A","OBJECT_ID":"1988-021A","EPOCH":"2026-03-09T17:48:35.102880","MEAN_MOTION":13.97157153,"ECCENTRICITY":0.00153021,"INCLINATION":98.8636,"RA_OF_ASC_NODE":127.0444,"ARG_OF_PERICENTER":122.058,"MEAN_ANOMALY":348.5561,"EPHEMERIS_TYPE":0,"CLASSIFICATION_TYPE":"U","NORAD_CAT_ID":18960,"ELEMENT_SET_NO":999,"REV_AT_EPOCH":83928,"BSTAR":0.00017893633,"MEAN_MOTION_DOT":2.08e-6,"MEAN_MOTION_DDOT":0}]
